COSMOS 2425 (716)       
1 29670U 06062A   21303.05516247  .00000011  00000-0  00000-0 0  9999
2 29670  64.8121 250.9022 0024405 341.7186 117.6814  2.13114600115545
COSMOS 2433 (720)       
1 32275U 07052A   21303.29941933 -.00000060  00000-0  00000-0 0  9999
2 32275  66.0767  12.3110 0004350 225.0641 229.1188  2.13104239109065
COSMOS 2432 (719)       
1 32276U 07052B   21303.39343228 -.00000060  00000-0  00000-0 0  9994
2 32276  66.0900  12.4056 0008611 318.0436 157.1794  2.13103398109062
COSMOS 2434 (721)       
1 32393U 07065A   21303.52115793  .00000007  00000-0  00000-0 0  9997
2 32393  64.4311 249.2832 0000717  89.0482  64.0216  2.13103056107779
COSMOS 2436 (723)       
1 32395U 07065C   21303.38150519  .00000008  00000-0  00000-0 0  9999
2 32395  64.4399 249.3425 0015089 352.6623 189.2975  2.13102857107703
COSMOS 2456 (730)       
1 36111U 09070A   21303.57050654  .00000111  00000-0  00000+0 0  9991
2 36111  64.2991 128.9465 0001958 349.7825   9.9282  2.13099272 92434
COSMOS 2457 (733)       
1 36112U 09070B   21303.40136936  .00000110  00000-0  00000-0 0  9992
2 36112  64.2824 128.8350 0006624 148.3560 207.0610  2.13101499 92437
COSMOS 2459 (731)       
1 36400U 10007A   21302.80862786 -.00000062  00000-0  00000-0 0  9993
2 36400  65.9702  11.2322 0025008 347.2049 310.1980  2.13109500 90764
COSMOS 2461 (735)       
1 36401U 10007B   21303.41062829 -.00000059  00000-0  00000-0 0  9998
2 36401  65.9659  11.1765 0017901   5.7524  31.4503  2.13103550 90799
COSMOS 2460 (732)       
1 36402U 10007C   21303.42929610 -.00000059  00000-0  00000-0 0  9990
2 36402  65.9527  11.1302 0001939 194.7173 162.9920  2.13106430 90786
COSMOS 2464 (736)       
1 37139U 10041C   21303.26968671  .00000007  00000-0  00000-0 0  9990
2 37139  64.0308 248.4812 0027852   6.6074 173.4603  2.13100737 86846
COSMOS 2471 (701K)      
1 37372U 11009A   21303.43223566 -.00000059  00000-0  00000-0 0  9998
2 37372  65.9467  11.0591 0017182 227.9242 259.5819  2.13062277 83061
COSMOS 2476 (744)       
1 37867U 11064A   21303.15781903  .00000108  00000-0  00000-0 0  9995
2 37867  64.5921 130.2272 0019415 231.3362  75.2589  2.13101847 77778
COSMOS 2477 (745)       
1 37868U 11064B   21303.46715616  .00000111  00000-0  00000-0 0  9992
2 37868  64.5993 130.2794 0016919 231.7015 130.4742  2.13101744 77740
COSMOS 2475 (743)       
1 37869U 11064C   21303.51865757  .00000112  00000-0  00000-0 0  9992
2 37869  64.6066 130.2828 0020334 253.5656 105.9605  2.13102004 77745
COSMOS 2485 (747)       
1 39155U 13019A   21301.97818001  .00000097  00000-0  00000-0 0  9994
2 39155  64.7571 130.6452 0020128 227.2077 298.8828  2.13101971 66222
COSMOS 2492 (754)       
1 39620U 14012A   21303.12507895 -.00000060  00000-0  00000-0 0  9991
2 39620  65.8404  10.8552 0011868 315.9119  44.6909  2.13103218 59202
COSMOS 2500 (755)       
1 40001U 14032A   21303.31250073 -.00000060  00000-0  00000-0 0  9992
2 40001  65.7810  10.7259 0008311 202.1209 161.5457  2.13102348 57428
COSMOS 2501 (702K)      
1 40315U 14075A   21303.15486633  .00000008  00000-0  00000-0 0  9993
2 40315  63.7405 249.2414 0018156 213.2016 196.4689  2.13101305 53829
COSMOS 2514 (751)       
1 41330U 16008A   21303.42232751 -.00000059  00000-0  00000-0 0  9996
2 41330  65.5815  10.4720 0011930 210.3836  60.9346  2.13102780 44587
COSMOS 2516 (753)       
1 41554U 16032A   21303.42917271  .00000007  00000-0  00000-0 0  9990
2 41554  63.9659 249.4434 0014889 222.4634 312.3520  2.13107107 42196
COSMOS 2522 (752)       
1 42939U 17055A   21303.22496899  .00000009  00000-0  00000-0 0  9992
2 42939  64.1995 249.7783 0009251 249.3246 349.2866  2.13102008 31942
COSMOS 2527 (756)       
1 43508U 18053A   21303.10553240  .00000109  00000-0  00000-0 0  9996
2 43508  64.9193 130.5600 0006763 213.6874 325.4213  2.13102535 26237
COSMOS 2529 (757)       
1 43687U 18086A   21303.20279036  .00000009  00000-0  00000-0 0  9998
2 43687  64.4147 250.0336 0011322 269.1881 267.9626  2.13102106 23255
COSMOS 2534 (758)       
1 44299U 19030A   21303.50594567  .00000008  00000-0  00000-0 0  9999
2 44299  64.4853 249.8859 0014315 286.5595 257.9057  2.13101877 18902
COSMOS 2544 (759)       
1 44850U 19088A   21303.28102509  .00000110  00000-0  00000-0 0  9995
2 44850  64.9073 130.4104 0009896 254.9104 102.4724  2.13102303 14664
COSMOS 2545 (760)       
1 45358U 20018A   21303.53990711 -.00000060  00000-0  00000-0 0  9997
2 45358  64.9171  11.2650 0010382 239.8699 165.9461  2.13102661 12636
